{
  "type": "FeatureCollection",
  "features": [
    {
      "type": "Feature",
      "properties": { "name": "Municipality of Luisiana", "admin_level": "8" },
      "geometry": {
        "type": "Polygon",
        "coordinates": [
          [
            [121.4668523,14.2013142],[121.4673275,14.2000292],[121.4684271,14.1970561],[121.4725792,14.195319],[121.4729976,14.1902952],[121.4808314,14.1721906],[121.4807975,14.1650911],[121.4849818,14.1663186],[121.4877606,14.1661987],[121.4881307,14.1659906],[121.4884043,14.1657878],[121.4887316,14.1651376],[121.4889032,14.1647943],[121.4890481,14.1646643],[121.489327,14.1646019],[121.4897884,14.1645915],[121.490078,14.1645707],[121.4905662,14.1645603],[121.490872,14.164503],[121.4909522,14.1643106],[121.4909844,14.1639309],[121.4910487,14.1633535],[121.491156,14.1631403],[121.491333,14.1630675],[121.4916764,14.1631663],[121.4920036,14.1634576],[121.492481,14.1634784],[121.4927385,14.1634056],[121.4928297,14.1632183],[121.4928941,14.1630259],[121.492996,14.1625473],[121.4930657,14.161892],[121.4931677,14.1616267],[121.4932589,14.1615487],[121.4936451,14.1613458],[121.4940582,14.1612002],[121.4943908,14.1613458],[121.4946322,14.1616007],[121.4947931,14.1620376],[121.4950238,14.1623705],[121.4953939,14.1624641],[121.4958118,14.16237],[121.4959571,14.1622041],[121.495984,14.162048],[121.4960108,14.1618295],[121.496043,14.1616318],[121.495925,14.1613199],[121.495723,14.1609549],[121.4958364,14.1603461],[121.4962375,14.1601266],[121.4963059,14.1600663],[121.4964829,14.1601131],[121.4965634,14.1600246],[121.4968638,14.1601235],[121.4969603,14.1602431],[121.4972339,14.1603836],[121.4975289,14.1603315],[121.4976362,14.1602327],[121.4978132,14.1602275],[121.4979259,14.1601131],[121.4981352,14.1596138],[121.4982853,14.1589014],[121.4984465,14.1584385],[121.4986226,14.1585093],[121.4988234,14.158594],[121.4992966,14.1586933],[121.4997605,14.1588285],[121.5001253,14.1587271],[121.5004874,14.1584671],[121.5006779,14.1582668],[121.5009262,14.1579872],[121.5010104,14.1578923],[121.5012358,14.157471],[121.5013538,14.1569821],[121.5014963,14.1568285],[121.5016465,14.1565924],[121.5017615,14.1563579],[121.502056,14.1560838],[121.50255,14.1557805],[121.5026316,14.1557059],[121.5036981,14.1549279],[121.5044089,14.1546548],[121.5044706,14.1541316],[121.5045833,14.1534792],[121.5046932,14.1532217],[121.5053638,14.1528806],[121.5060048,14.1523167],[121.5069141,14.151422],[121.5075043,14.1510783],[121.5081854,14.1509746],[121.5082954,14.1508446],[121.508223,14.1501524],[121.5082291,14.1498612],[121.5085047,14.1496634],[121.5089016,14.1496456],[121.5090572,14.1496322],[121.5100362,14.1501368],[121.5104413,14.1502434],[121.5109293,14.1502356],[121.5117152,14.1499911],[121.5121209,14.1497719],[121.512477,14.149614],[121.5133004,14.1493123],[121.5138851,14.1492607],[121.514671,14.1493543],[121.5156447,14.1490054],[121.5162938,14.1487457],[121.516774,14.1485711],[121.5171467,14.1483682],[121.5174176,14.1476764],[121.5175731,14.1475025],[121.517667,14.1473226],[121.5178254,14.1472758],[121.5180774,14.1472316],[121.5183833,14.1473331],[121.5188043,14.1473071],[121.5189411,14.1478406],[121.5192281,14.1484566],[121.5195313,14.1485399],[121.5198477,14.1484488],[121.5200538,14.1483843],[121.5202421,14.1483942],[121.5204606,14.1482497],[121.5206793,14.1481497],[121.5209098,14.1480507],[121.5214165,14.1483169],[121.5217748,14.1486274],[121.5219623,14.1488483],[121.5223939,14.1488855],[121.522511,14.1491487],[121.5224646,14.1499982],[121.5223074,14.1501316],[121.5219694,14.1500639],[121.5217119,14.15009],[121.5215188,14.1502772],[121.5215027,14.1505009],[121.5216154,14.150735],[121.5216476,14.1509274],[121.5212828,14.1512759],[121.5211862,14.1516973],[121.5212774,14.1520094],[121.521197,14.1522278],[121.5209556,14.1524671],[121.5207195,14.1528156],[121.5207624,14.1529144],[121.5208697,14.1530237],[121.5210333,14.1530757],[121.5210199,14.1532499],[121.5209502,14.1534814],[121.5209717,14.153614],[121.5210924,14.1536531],[121.5211192,14.1538351],[121.5211353,14.1539574],[121.5213042,14.154129],[121.5214357,14.1543553],[121.521484,14.1545581],[121.5213954,14.1548104],[121.5212452,14.1549743],[121.5211192,14.1551641],[121.5209958,14.1553644],[121.5208697,14.155393],[121.520741,14.1554606],[121.5207088,14.155601],[121.5205505,14.1558429],[121.5204057,14.1559365],[121.5203306,14.156116],[121.5202796,14.1563084],[121.5201187,14.1566674],[121.5200758,14.1569092],[121.5199631,14.1571121],[121.5199792,14.1572941],[121.5201536,14.1573331],[121.5201938,14.1575204],[121.5202475,14.1575932],[121.520462,14.1576166],[121.5206686,14.1576192],[121.5207463,14.1576764],[121.5208322,14.1579105],[121.5208402,14.1581316],[121.5208214,14.1584411],[121.5208966,14.1587011],[121.5209931,14.158917],[121.5211219,14.1590002],[121.5213203,14.1589898],[121.5213633,14.158891],[121.5217012,14.1588208],[121.5216932,14.1589742],[121.5216368,14.1592447],[121.5214759,14.1594163],[121.5213284,14.1595334],[121.5211889,14.159614],[121.5209797,14.1596218],[121.5208831,14.1596582],[121.5208563,14.1598428],[121.5210173,14.1600353],[121.5213472,14.1600925],[121.5217763,14.1600327],[121.5219882,14.1599469],[121.52242,14.1598689],[121.522699,14.1598376],[121.5229618,14.1598533],[121.5231442,14.1599469],[121.5232381,14.1598142],[121.5235546,14.1597674],[121.5237397,14.1597934],[121.5240401,14.1599339],[121.5242305,14.1600249],[121.5244478,14.1601211],[121.5245846,14.1602564],[121.5246892,14.1604046],[121.5247321,14.1605632],[121.5245819,14.1606959],[121.5246034,14.1608987],[121.5248072,14.1609455],[121.5250272,14.1608337],[121.5251398,14.1605268],[121.5253624,14.1603864],[121.5255971,14.1601991],[121.5257111,14.1602226],[121.5257594,14.1604202],[121.5258291,14.1605762],[121.5260383,14.1607401],[121.526159,14.1608259],[121.5262905,14.1608987],[121.5264058,14.1609768],[121.5266526,14.161008],[121.5268001,14.1610704],[121.5271354,14.161177],[121.5273499,14.1611952],[121.5275511,14.1611718],[121.5276852,14.161047],[121.5276799,14.1609221],[121.5276021,14.1607115],[121.5275484,14.160532],[121.5276222,14.1604072],[121.5276611,14.1602902],[121.5277818,14.1600795],[121.5278596,14.1599027],[121.5278703,14.159809],[121.5279561,14.1597336],[121.5279829,14.1596296],[121.5281063,14.1595074],[121.5281251,14.1593955],[121.5280741,14.1592655],[121.5280849,14.1591511],[121.5280634,14.1589534],[121.528058,14.1587323],[121.5280634,14.1585815],[121.5280473,14.1584437],[121.5280232,14.15835],[121.5280554,14.1582096],[121.5281251,14.158181],[121.5281734,14.158168],[121.5281224,14.1578091],[121.5281358,14.1577233],[121.5282056,14.157666],[121.5283424,14.1576972],[121.5284979,14.1577493],[121.5286401,14.1578247],[121.5287474,14.1578325],[121.5289351,14.1577961],[121.5289941,14.1577311],[121.529029,14.1576465],[121.5291001,14.1575516],[121.5291591,14.1574749],[121.5291832,14.1574047],[121.5293254,14.157419],[121.5295011,14.1573435],[121.5296379,14.1573097],[121.5298444,14.1572889],[121.5299517,14.157337],[121.5300885,14.1573422],[121.5302358,14.1573597],[121.5303224,14.1573823],[121.5306212,14.157298],[121.5306481,14.157205],[121.5307059,14.157118],[121.5307856,14.1570935],[121.5308426,14.157162],[121.5309254,14.1571481],[121.5310298,14.1572506],[121.531203,14.1572553],[121.5313996,14.1571506],[121.5316987,14.1572333],[121.5318792,14.1572159],[121.5319915,14.1571667],[121.5320782,14.1570881],[121.532186,14.1569963],[121.5321902,14.1568894],[121.53254,14.1568],[121.5327506,14.1567272],[121.5328854,14.1567163],[121.5329531,14.156683],[121.5330004,14.1565968],[121.5330714,14.1565552],[121.5331417,14.1565994],[121.5331638,14.1566852],[121.533106,14.1568945],[121.5332347,14.1570106],[121.5333089,14.1570061],[121.5333844,14.15698],[121.5335459,14.1567952],[121.5336593,14.1567762],[121.5337942,14.1567963],[121.53394,14.1569243],[121.5339993,14.1570422],[121.5339517,14.1571031],[121.5340294,14.1573424],[121.5343795,14.1572138],[121.5346627,14.1572161],[121.5349355,14.1569319],[121.5353309,14.1567655],[121.535333,14.1567971],[121.5353381,14.1568746],[121.5353814,14.1573059],[121.535444,14.1578056],[121.5354771,14.1582137],[121.5354779,14.1585343],[121.5353991,14.158778],[121.5352941,14.1589262],[121.535009,14.1592835],[121.5349416,14.1594738],[121.5349235,14.1596705],[121.5349643,14.1599014],[121.5351705,14.1604782],[121.5352699,14.1607761],[121.5352755,14.1609209],[121.5352707,14.1611171],[121.535202,14.1613514],[121.5351095,14.1615945],[121.5348384,14.1622071],[121.5344804,14.163131],[121.534381,14.1632754],[121.5342406,14.1634423],[121.5340945,14.1635623],[121.5339615,14.1636506],[121.5337533,14.1637347],[121.533615,14.1637652],[121.5332927,14.163791],[121.5328898,14.1638235],[121.5325846,14.1638291],[121.5324282,14.1637976],[121.5322371,14.163681],[121.5320612,14.1635447],[121.5319201,14.1634514],[121.5317231,14.1633284],[121.531514,14.1632623],[121.5312423,14.1632262],[121.5310252,14.1632285],[121.5303179,14.163296],[121.5300173,14.1633491],[121.5298216,14.1634131],[121.5292097,14.1636303],[121.5290296,14.1637415],[121.5289185,14.1638239],[121.5283094,14.1643401],[121.5277525,14.1649331],[121.5276391,14.1651569],[121.5275607,14.165347],[121.5275072,14.1655984],[121.5274531,14.1658279],[121.5274023,14.1661141],[121.5273412,14.1662852],[121.5272547,14.1663981],[121.5268624,14.1667745],[121.5266676,14.1670015],[121.5265461,14.1671957],[121.5264327,14.1674605],[121.5263315,14.1677626],[121.5262666,14.1678896],[121.5259732,14.1683228],[121.5258163,14.168578],[121.5256992,14.1688661],[121.5256487,14.1690656],[121.5255717,14.1693694],[121.5255426,14.1694841],[121.525524,14.1696315],[121.5254873,14.1699233],[121.5254823,14.1700829],[121.5254591,14.170381],[121.5254848,14.1703631],[121.5255828,14.1703842],[121.5256366,14.1704523],[121.5256466,14.1705141],[121.5257044,14.170539],[121.5258117,14.1705804],[121.5259897,14.1706534],[121.5261147,14.1706966],[121.5263626,14.170782],[121.5264365,14.170782],[121.5264982,14.1707641],[121.5265721,14.1707999],[121.5266276,14.1709015],[121.5266645,14.1709433],[121.5267108,14.1710001],[121.5268622,14.1709743],[121.5269392,14.1709743],[121.5269326,14.1709881],[121.526985,14.1709821],[121.527025,14.1709553],[121.5270589,14.1709851],[121.5271236,14.1709702],[121.5272068,14.1709851],[121.5272684,14.1709971],[121.5273054,14.1710001],[121.5273393,14.1709821],[121.5273639,14.1709373],[121.527404,14.1708627],[121.5274225,14.1708029],[121.5274163,14.1706834],[121.5274071,14.1705818],[121.527503,14.1704485],[121.5275585,14.1703709],[121.5275523,14.170329],[121.5275369,14.1702872],[121.5275339,14.1702155],[121.5275431,14.1700721],[121.527614,14.1700841],[121.5276818,14.1701139],[121.5278173,14.1700811],[121.5279067,14.1700751],[121.5279775,14.170093],[121.528187,14.1701528],[121.5282548,14.1702215],[121.5283195,14.1702633],[121.528415,14.1702932],[121.5285198,14.170341],[121.5286862,14.1704097],[121.5287201,14.1704097],[121.5287848,14.1703977],[121.528831,14.1704694],[121.5288957,14.1704246],[121.5288957,14.1703798],[121.5290436,14.1703051],[121.5291298,14.1703649],[121.5291637,14.1703709],[121.5292931,14.1703679],[121.5293424,14.1703619],[121.5293794,14.1703559],[121.5294749,14.1704127],[121.5295889,14.1704903],[121.529592,14.1704874],[121.5296721,14.1704814],[121.5297923,14.1704724],[121.5300219,14.1705001],[121.5301813,14.1705039],[121.5303173,14.1705993],[121.5303973,14.1706466],[121.5304626,14.1707448],[121.5304763,14.1708621],[121.530529,14.1710367],[121.5306244,14.1713279],[121.5306799,14.1715458],[121.5306448,14.1720365],[121.5306947,14.1723519],[121.5305525,14.1725236],[121.5305793,14.1727316],[121.5306839,14.1728955],[121.5309119,14.1729943],[121.5310568,14.1731087],[121.5311989,14.1731581],[121.5314296,14.1732673],[121.5316504,14.173306],[121.5317997,14.1734962],[121.5319553,14.1736964],[121.5321833,14.1738421],[121.5324068,14.1739397],[121.5326554,14.1740527],[121.5328565,14.1740501],[121.5330121,14.1739253],[121.5331379,14.1737691],[121.5332642,14.1737745],[121.5335003,14.1736808],[121.5337443,14.17366],[121.5340432,14.1739395],[121.5343183,14.1741957],[121.5344095,14.1744818],[121.5345865,14.1748251],[121.5348159,14.1750592],[121.5350667,14.1751683],[121.5352276,14.175249],[121.5354449,14.17521],[121.5355763,14.175314],[121.535638,14.1754882],[121.5355816,14.1756676],[121.5356219,14.1758393],[121.5357372,14.1759615],[121.5357989,14.1758211],[121.5360108,14.1758211],[121.5361798,14.1759199],[121.5362119,14.1760291],[121.5361261,14.1760889],[121.5360403,14.1761409],[121.5361664,14.1762528],[121.536102,14.1765258],[121.5360564,14.1766012],[121.5361683,14.1767432],[121.536566,14.1768925],[121.5367967,14.1769497],[121.5371615,14.1768821],[121.5375745,14.1769237],[121.5379661,14.1769913],[121.5383792,14.1770745],[121.5387332,14.1771734],[121.5388781,14.1774646],[121.5390229,14.1778287],[121.5392214,14.1781043],[121.5392843,14.178293],[121.5394199,14.1781173],[121.5395781,14.1779353],[121.5397257,14.1776596],[121.5399483,14.1773086],[121.5401334,14.1770745],[121.5405006,14.176743],[121.54082,14.176609],[121.5410855,14.176453],[121.5413806,14.1763594],[121.5416488,14.176232],[121.5419412,14.1760395],[121.5421718,14.1757587],[121.5423381,14.1754882],[121.5425956,14.1751293],[121.5427458,14.1750461],[121.5430731,14.1750097],[121.543411,14.1749733],[121.5437436,14.1749577],[121.5439689,14.1748485],[121.5440977,14.1746248],[121.5441311,14.1743105],[121.5440923,14.1740319],[121.5440814,14.1737736],[121.5440068,14.1734717],[121.5437972,14.1732257],[121.5433788,14.1729657],[121.5431837,14.172811],[121.5432571,14.1726753],[121.5433668,14.1726289],[121.5434924,14.1725534],[121.5437101,14.1725329],[121.5440585,14.1724627],[121.5442389,14.1724044],[121.5445995,14.1722545],[121.5449516,14.1720714],[121.5451405,14.1720131],[121.5454582,14.1718216],[121.5456306,14.1718361],[121.5459665,14.1718299],[121.5461253,14.1719308],[121.5462912,14.1719548],[121.5464887,14.1719548],[121.5467248,14.1719704],[121.5470435,14.1719485],[121.5473848,14.1719276],[121.5476713,14.1719911],[121.5478753,14.1719454],[121.5480642,14.1717623],[121.5481832,14.1716553],[121.548368,14.1715319],[121.5485016,14.1713199],[121.5486473,14.171108],[121.5487445,14.1708725],[121.5486959,14.170637],[121.5485502,14.1704251],[121.5484409,14.1702131],[121.5482344,14.1700365],[121.548113,14.1698246],[121.5480164,14.1695461],[121.5481526,14.1692378],[121.5483861,14.1691724],[121.5487323,14.1692358],[121.5489874,14.1692241],[121.5492424,14.1691887],[121.5494974,14.1691063],[121.5497282,14.1689768],[121.5498739,14.1687648],[121.5499589,14.1685294],[121.5500925,14.1683174],[121.5504447,14.1679524],[121.5506632,14.1677993],[121.5508539,14.1676975],[121.5509199,14.1676232],[121.5510462,14.1674927],[121.551183,14.1673308],[121.551239,14.1670641],[121.551155,14.1669355],[121.5510474,14.1668522],[121.5510761,14.1667632],[121.5510883,14.1665159],[121.5511651,14.1663818],[121.5510821,14.1662223],[121.5511413,14.1659109],[121.5512506,14.1655634],[121.5514375,14.1653291],[121.5518534,14.1650676],[121.5521084,14.1650911],[121.552157,14.1653149],[121.5523756,14.1654679],[121.5526427,14.1654679],[121.5528735,14.165362],[121.5530799,14.1649145],[121.5533228,14.1647968],[121.5538693,14.1647026],[121.5544522,14.1647026],[121.5547315,14.164573],[121.5548529,14.1643493],[121.5548408,14.1641138],[121.5547679,14.1636193],[121.5547072,14.1633838],[121.5547436,14.1631483],[121.5548772,14.1629363],[121.5550393,14.1628065],[121.5553023,14.162642],[121.5555452,14.162536],[121.5558002,14.1625007],[121.5560552,14.16243],[121.5565774,14.1622652],[121.5568324,14.1622416],[121.5569787,14.162324],[121.5571725,14.162536],[121.5573182,14.162795],[121.5575125,14.1629481],[121.5577432,14.1630776],[121.557974,14.1631718],[121.5582168,14.163266],[121.5585083,14.163266],[121.5587633,14.1632307],[121.5590305,14.1631601],[121.559115,14.1630292],[121.5591432,14.1628287],[121.5590791,14.1625831],[121.5590791,14.1623476],[121.5592513,14.1621915],[121.5595504,14.1620606],[121.5596498,14.161959],[121.5599292,14.161959],[121.560172,14.1620532],[121.5604392,14.162065],[121.5607185,14.162065],[121.5609857,14.1620061],[121.5611314,14.1615351],[121.5613136,14.1612761],[121.5615322,14.161123],[121.5617386,14.1609581],[121.5622968,14.1612254],[121.5626465,14.161177],[121.5630129,14.1611608],[121.5633793,14.1612093],[121.5634686,14.1614865],[121.5637295,14.1614017],[121.5641115,14.1612205],[121.5642732,14.1608935],[121.5642768,14.1606279],[121.5643785,14.1603211],[121.5646283,14.1600628],[121.5649114,14.1598528],[121.5656442,14.1598528],[121.5659773,14.1600143],[121.5663936,14.1605633],[121.5665768,14.160854],[121.5666408,14.1611874],[121.5667933,14.1614999],[121.5669479,14.1616974],[121.5674314,14.1620831],[121.567725,14.1622418],[121.5679318,14.1621627],[121.5681202,14.1618753],[121.5683432,14.1617579],[121.5686929,14.1616449],[121.5692925,14.1614188],[121.5696256,14.1613058],[121.5699854,14.1610033],[121.5701853,14.1607288],[121.5704518,14.1600668],[121.5704518,14.1590818],[121.5704845,14.1588283],[121.5706973,14.1585861],[121.5709827,14.1586126],[121.5713914,14.1588454],[121.5720398,14.1590701],[121.5724265,14.1591893],[121.5727333,14.159267],[121.5730782,14.15952],[121.5733667,14.1597144],[121.573675,14.1599363],[121.5740515,14.1600165],[121.5744615,14.15985],[121.5746818,14.1597734],[121.5750864,14.1595618],[121.5754361,14.1594326],[121.5758025,14.1594488],[121.5760523,14.159691],[121.5761852,14.1602677],[121.5763728,14.1604505],[121.5765712,14.1606205],[121.5768225,14.1606443],[121.5771889,14.1606927],[121.5775553,14.1606766],[121.577873,14.1606949],[121.5782201,14.1606953],[121.5786391,14.1606829],[121.5789209,14.1608057],[121.5792706,14.160838],[121.5796203,14.1609349],[121.5799162,14.1611788],[121.5799966,14.1614425],[121.5798945,14.1617461],[121.5797446,14.1620368],[121.5796613,14.1623598],[121.579654,14.1627763],[121.5798243,14.1631366],[121.5800683,14.1632659],[121.5806439,14.1633465],[121.5810714,14.1632409],[121.5813926,14.1630055],[121.5815501,14.1625656],[121.5815668,14.1622207],[121.5816057,14.1618896],[121.5817764,14.1615847],[121.5820428,14.1613425],[121.5823759,14.1612294],[121.5826989,14.1613069],[121.5831027,14.1612679],[121.5835223,14.161259],[121.5837674,14.1611725],[121.5839231,14.1610704],[121.5840951,14.161011],[121.5843799,14.1612417],[121.5847419,14.1613193],[121.5850514,14.1612365],[121.5854661,14.161259],[121.5857547,14.1613979],[121.5859507,14.1615195],[121.5861788,14.161757],[121.586656,14.1619076],[121.586989,14.1620207],[121.5873388,14.1620852],[121.5876862,14.1619572],[121.5879883,14.16173],[121.5882381,14.1614716],[121.588339,14.1611637],[121.5883212,14.1608252],[121.5882381,14.1604866],[121.5884046,14.160196],[121.5885827,14.1600631],[121.5889968,14.1602337],[121.5894211,14.1603978],[121.5897247,14.160576],[121.5900996,14.16075],[121.5904563,14.1609239],[121.5909498,14.1609644],[121.5914516,14.1608363],[121.5919188,14.1608706],[121.5923683,14.1608603],[121.5927788,14.1607608],[121.5928808,14.1607422],[121.5931398,14.1607299],[121.5936247,14.1607162],[121.5938229,14.1606716],[121.5940464,14.1605856],[121.59429,14.1606343],[121.5944112,14.1606585],[121.5946151,14.1607417],[121.5949101,14.1611057],[121.5955029,14.1611942],[121.5959535,14.1610797],[121.5961788,14.1609029],[121.5961681,14.1607468],[121.5964389,14.1606584],[121.596962,14.1603958],[121.597029,14.1600759],[121.5975888,14.1595654],[121.5978874,14.1593685],[121.5980697,14.1591396],[121.5985204,14.158942],[121.598971,14.1589836],[121.5994752,14.1590772],[121.5998507,14.1591188],[121.6003657,14.1590876],[121.6009558,14.1591396],[121.6015673,14.159098],[121.6025651,14.1591812],[121.603284,14.159098],[121.6039492,14.1588483],[121.6044453,14.158685],[121.6050566,14.1586356],[121.6057407,14.158819],[121.6063125,14.1591473],[121.6067556,14.1591826],[121.6072398,14.1588825],[121.6076546,14.1585932],[121.607971,14.1584857],[121.6085061,14.1583039],[121.60895,14.158311],[121.6094885,14.1584521],[121.6098306,14.1588331],[121.6100125,14.159814],[121.6100925,14.1605267],[121.6102235,14.1607454],[121.6105146,14.1607595],[121.6107257,14.1605267],[121.6109586,14.1601597],[121.6111987,14.1597293],[121.6113879,14.1597152],[121.6120065,14.1597011],[121.612727,14.1596376],[121.6131927,14.1598069],[121.6137749,14.160195],[121.6138841,14.1607666],[121.6140442,14.16095],[121.6144663,14.1613311],[121.6148156,14.1619732],[121.6151474,14.1625295],[121.6145593,14.1625112],[121.6141194,14.1625268],[121.613819,14.1625372],[121.6133362,14.16248],[121.613009,14.1626412],[121.6128212,14.1630937],[121.6127568,14.1635462],[121.6126683,14.1639415],[121.612671,14.1644227],[121.6126817,14.1646957],[121.6127568,14.1653823],[121.6128588,14.1659701],[121.612848,14.1666098],[121.6126174,14.1671715],[121.6124618,14.1676241],[121.6101712,14.170646],[121.6101873,14.170958],[121.6100156,14.1712909],[121.6098386,14.171655],[121.6095328,14.1718162],[121.6091037,14.1717382],[121.6086799,14.171629],[121.6082668,14.1716082],[121.6080308,14.171837],[121.6077626,14.1721387],[121.6073978,14.1723832],[121.6069096,14.1725808],[121.6064805,14.1726744],[121.6062123,14.1727056],[121.6059333,14.1729085],[121.6059333,14.1730593],[121.6050804,14.1749057],[121.6049194,14.1749317],[121.6046566,14.1750825],[121.6042703,14.1750929],[121.6040772,14.1751501],[121.6038787,14.1753582],[121.6037714,14.1755922],[121.6037446,14.1758367],[121.6037607,14.1761383],[121.6045332,14.1783592],[121.6045707,14.1785568],[121.6044903,14.1789573],[121.6043723,14.1791965],[121.6044581,14.1795294],[121.604324,14.1800027],[121.6043347,14.1804916],[121.6053271,14.1812197],[121.6057026,14.181537],[121.6054237,14.1826396],[121.6052815,14.182806],[121.6050401,14.1828086],[121.6048148,14.1827384],[121.6045949,14.182728],[121.6043588,14.182832],[121.6040102,14.1829282],[121.6034844,14.1830166],[121.6032377,14.1830426],[121.6029185,14.1830843],[121.6027254,14.1831727],[121.602543,14.1834353],[121.6024947,14.183724],[121.6024706,14.184036],[121.6024733,14.1842675],[121.6025296,14.1845717],[121.6026261,14.1848265],[121.6026583,14.1850268],[121.6028649,14.1852036],[121.6028595,14.1853856],[121.60283,14.1856951],[121.602889,14.1858537],[121.6028166,14.1859811],[121.6029882,14.1877988],[121.6013078,14.1879485],[121.5998708,14.191497],[121.595329,14.1977839],[121.5968923,14.1999492],[121.5738916,14.2046488],[121.5689456,14.205772],[121.5642786,14.2075194],[121.5587501,14.2113051],[121.5536523,14.215414],[121.5530209,14.2159229],[121.5429143,14.2178781],[121.538197,14.2191093],[121.5303218,14.2211646],[121.5251903,14.2216013],[121.51628,14.2200624],[121.5057412,14.2182423],[121.5007789,14.2188011],[121.4984465,14.2190638],[121.4904063,14.2210854],[121.4854843,14.2215279],[121.4798623,14.2220334],[121.4775083,14.2239933],[121.4725838,14.2280933],[121.467129,14.202631],[121.4668523,14.2013142]
          ]
        ]
      }
    }
  ]
}
