{"type":"FeatureCollection","features":[{"type":"Feature","properties":{"name":"Barangay Zone I (Poblacion)","color":"#c0392b","lon":121.509387,"lat":14.1839084},"geometry":{"type":"Polygon","coordinates":[[[121.5081023000003,14.182431600000031],[121.50920230000031,14.182431600000031],[121.50975230000032,14.182981600000032],[121.50975230000032,14.184631600000033],[121.5086523000003,14.185181600000034],[121.5081023000003,14.182981600000032],[121.5081023000003,14.182431600000031]]]}},{"type":"Feature","properties":{"name":"Barangay Zone II (Poblacion)","color":"#d35400","lon":121.5103674,"lat":14.1839873},"geometry":{"type":"Polygon","coordinates":[[[121.51030230000032,14.182981600000032],[121.51085230000032,14.184081600000033],[121.51085230000032,14.184631600000033],[121.51030230000032,14.184631600000033],[121.51030230000032,14.182981600000032]]]}},{"type":"Feature","properties":{"name":"Barangay Zone III (Poblacion)","color":"#e67e22","lon":121.5113341,"lat":14.1837591},"geometry":{"type":"Polygon","coordinates":[[[121.51085230000032,14.182981600000032],[121.51140230000033,14.182431600000031],[121.51195230000033,14.182431600000031],[121.51195230000033,14.182981600000032],[121.51140230000033,14.184081600000033],[121.51085230000032,14.183531600000032],[121.51085230000032,14.182981600000032]]]}},{"type":"Feature","properties":{"name":"Barangay Zone IV (Poblacion)","color":"#f1c40f","lon":121.5125314,"lat":14.1837933},"geometry":{"type":"Polygon","coordinates":[[[121.51195230000033,14.183531600000032],[121.51250230000034,14.18188160000003],[121.51360230000034,14.18078160000003],[121.51635230000036,14.178581600000028],[121.51745230000037,14.178031600000027],[121.51800230000038,14.178031600000027],[121.51855230000038,14.178581600000028],[121.51910230000038,14.179681600000029],[121.51745230000037,14.18188160000003],[121.51470230000035,14.183531600000032],[121.51250230000034,14.184631600000033],[121.51195230000033,14.184081600000033],[121.51195230000033,14.183531600000032]]]}},{"type":"Feature","properties":{"name":"Barangay Zone V (Poblacion)","color":"#27ae60","lon":121.513583,"lat":14.1854236},"geometry":{"type":"Polygon","coordinates":[[[121.51305230000034,14.184631600000033],[121.51580230000036,14.182981600000032],[121.51690230000037,14.182431600000031],[121.51415230000035,14.187931600000036],[121.51305230000034,14.187931600000036],[121.51305230000034,14.184631600000033]]]}},{"type":"Feature","properties":{"name":"Barangay Zone VI (Poblacion)","color":"#16a085","lon":121.5121485,"lat":14.185504},"geometry":{"type":"Polygon","coordinates":[[[121.51195230000033,14.184631600000033],[121.51250230000034,14.185181600000034],[121.51250230000034,14.187931600000036],[121.51195230000033,14.187931600000036],[121.51195230000033,14.184631600000033]]]}},{"type":"Feature","properties":{"name":"Barangay Zone VII (Poblacion)","color":"#1abc9c","lon":121.5112004,"lat":14.1854541},"geometry":{"type":"Polygon","coordinates":[[[121.51085230000032,14.185181600000034],[121.51140230000033,14.184631600000033],[121.51140230000033,14.187931600000036],[121.51085230000032,14.186281600000035],[121.51085230000032,14.185181600000034]]]}},{"type":"Feature","properties":{"name":"Barangay Zone VIII (Poblacion)","color":"#2980b9","lon":121.5102021,"lat":14.1856137},"geometry":{"type":"Polygon","coordinates":[[[121.5086523000003,14.185731600000034],[121.50920230000031,14.185181600000034],[121.51030230000032,14.185181600000034],[121.51085230000032,14.186831600000035],[121.51085230000032,14.188481600000037],[121.50975230000032,14.189031600000037],[121.50920230000031,14.188481600000037],[121.5086523000003,14.187381600000036],[121.5086523000003,14.185731600000034]]]}},{"type":"Feature","properties":{"name":"De La Paz","color":"#8e44ad","lon":121.5375131,"lat":14.188082},"geometry":{"type":"Polygon","coordinates":[[[121.53175230000048,14.200581600000048],[121.5339523000005,14.182981600000032],[121.5345023000005,14.179131600000028],[121.53670230000051,14.176931600000026],[121.55155230000062,14.165381600000016],[121.55540230000065,14.162631600000013],[121.55705230000066,14.162631600000013],[121.55815230000067,14.163731600000014],[121.55760230000067,14.165381600000016],[121.54990230000061,14.182981600000032],[121.5477023000006,14.187931600000036],[121.54660230000059,14.189031600000037],[121.54000230000054,14.194531600000042],[121.5339523000005,14.199481600000047],[121.53175230000048,14.201131600000048],[121.53175230000048,14.200581600000048]]]}},{"type":"Feature","properties":{"name":"San Antonio","color":"#e84393","lon":121.5061572,"lat":14.1873079},"geometry":{"type":"Polygon","coordinates":[[[121.47400230000005,14.188481600000037],[121.47455230000006,14.186831600000035],[121.47785230000008,14.179131600000028],[121.47895230000009,14.176931600000026],[121.4811523000001,14.176931600000026],[121.48280230000012,14.177481600000027],[121.50150230000025,14.184081600000033],[121.5075523000003,14.186281600000035],[121.5081023000003,14.186831600000035],[121.50920230000031,14.189031600000037],[121.50920230000031,14.189581600000038],[121.5086523000003,14.190681600000039],[121.50205230000026,14.20278160000005],[121.50150230000025,14.20333160000005],[121.49160230000018,14.198381600000046],[121.47455230000006,14.189581600000038],[121.47400230000005,14.189031600000037],[121.47400230000005,14.188481600000037]]]}},{"type":"Feature","properties":{"name":"San Buenaventura","color":"#00b894","lon":121.5547896,"lat":14.1951736},"geometry":{"type":"Polygon","coordinates":[[[121.5477023000006,14.188481600000037],[121.5482523000006,14.186831600000035],[121.55595230000065,14.16923160000002],[121.55815230000067,14.164281600000015],[121.55925230000068,14.162631600000013],[121.55980230000068,14.162081600000013],[121.56530230000072,14.159881600000011],[121.57080230000076,14.15878160000001],[121.60930230000105,14.15878160000001],[121.61315230000108,14.159881600000011],[121.61370230000108,14.160431600000011],[121.61480230000109,14.162081600000013],[121.61260230000107,14.167031600000017],[121.60545230000102,14.182431600000031],[121.59610230000095,14.200031600000047],[121.55650230000066,14.212681600000058],[121.55595230000065,14.212131600000058],[121.55265230000063,14.20278160000005],[121.5482523000006,14.190131600000038],[121.5477023000006,14.188481600000037]]]}},{"type":"Feature","properties":{"name":"San Diego","color":"#fdcb6e","lon":121.5072126,"lat":14.1844996},"geometry":{"type":"Polygon","coordinates":[[[121.48170230000011,14.176931600000026],[121.49050230000017,14.176931600000026],[121.50205230000026,14.177481600000027],[121.50315230000027,14.178031600000027],[121.5070023000003,14.18133160000003],[121.5075523000003,14.18188160000003],[121.5081023000003,14.183531600000032],[121.5081023000003,14.186281600000035],[121.50315230000027,14.184631600000033],[121.48445230000013,14.178031600000027],[121.48170230000011,14.176931600000026]]]}},{"type":"Feature","properties":{"name":"San Isidro","color":"#e17055","lon":121.510284,"lat":14.1811622},"geometry":{"type":"Polygon","coordinates":[[[121.50260230000026,14.177481600000027],[121.50425230000027,14.176931600000026],[121.51415230000035,14.174731600000024],[121.51635230000036,14.174731600000024],[121.51745230000037,14.176931600000026],[121.51745230000037,14.177481600000027],[121.51690230000037,14.178031600000027],[121.51415230000035,14.18023160000003],[121.51195230000033,14.18188160000003],[121.51085230000032,14.182431600000031],[121.50975230000032,14.182431600000031],[121.5081023000003,14.18188160000003],[121.50645230000029,14.18078160000003],[121.50260230000026,14.177481600000027]]]}},{"type":"Feature","properties":{"name":"San Jose","color":"#0984e3","lon":121.5130008,"lat":14.1908359},"geometry":{"type":"Polygon","coordinates":[[[121.50205230000026,14.20333160000005],[121.50480230000028,14.197831600000045],[121.5081023000003,14.19178160000004],[121.50920230000031,14.190131600000038],[121.51030230000032,14.189031600000037],[121.51140230000033,14.188481600000037],[121.51415230000035,14.188481600000037],[121.51580230000036,14.190131600000038],[121.51635230000036,14.19123160000004],[121.52295230000041,14.219281600000064],[121.52295230000041,14.220931600000066],[121.5218523000004,14.220381600000065],[121.50535230000028,14.206631600000053],[121.50205230000026,14.20333160000005]]]}},{"type":"Feature","properties":{"name":"San Juan","color":"#6c5ce7","lon":121.5192551,"lat":14.1894542},"geometry":{"type":"Polygon","coordinates":[[[121.51635230000036,14.190131600000038],[121.52295230000041,14.183531600000032],[121.52845230000045,14.205531600000052],[121.52845230000045,14.206081600000052],[121.52350230000042,14.220931600000066],[121.5213023000004,14.212131600000058],[121.51690230000037,14.193431600000041],[121.51635230000036,14.190681600000039],[121.51635230000036,14.190131600000038]]]}},{"type":"Feature","properties":{"name":"San Luis","color":"#a29bfe","lon":121.5077204,"lat":14.1705015},"geometry":{"type":"Polygon","coordinates":[[[121.47950230000009,14.175281600000025],[121.4811523000001,14.165381600000016],[121.50535230000028,14.165381600000016],[121.51250230000034,14.165931600000016],[121.51580230000036,14.16923160000002],[121.51690230000037,14.17088160000002],[121.51635230000036,14.173081600000023],[121.51580230000036,14.174181600000024],[121.51140230000033,14.175281600000025],[121.50645230000029,14.176381600000026],[121.50370230000027,14.176931600000026],[121.49105230000018,14.176931600000026],[121.47950230000009,14.176381600000026],[121.47950230000009,14.175281600000025]]]}},{"type":"Feature","properties":{"name":"San Pablo","color":"#00cec9","lon":121.5291478,"lat":14.1870998},"geometry":{"type":"Polygon","coordinates":[[[121.52350230000042,14.18188160000003],[121.52515230000043,14.18133160000003],[121.52900230000046,14.18023160000003],[121.53340230000049,14.179131600000028],[121.5339523000005,14.179131600000028],[121.5339523000005,14.182431600000031],[121.53175230000048,14.200031600000047],[121.53120230000047,14.201681600000049],[121.53065230000047,14.20278160000005],[121.52955230000046,14.204431600000051],[121.52900230000046,14.204981600000052],[121.52845230000045,14.204981600000052],[121.52350230000042,14.185181600000034],[121.52350230000042,14.18188160000003]]]}},{"type":"Feature","properties":{"name":"San Pedro","color":"#55efc4","lon":121.5254577,"lat":14.17426},"geometry":{"type":"Polygon","coordinates":[[[121.51635230000036,14.173631600000023],[121.51690230000037,14.171431600000021],[121.51745230000037,14.17033160000002],[121.53120230000047,14.163181600000014],[121.5345023000005,14.161531600000012],[121.5350523000005,14.161531600000012],[121.53615230000051,14.176931600000026],[121.5345023000005,14.178581600000028],[121.53285230000049,14.179131600000028],[121.52680230000044,14.18078160000003],[121.52460230000042,14.18133160000003],[121.52240230000041,14.18133160000003],[121.51965230000039,14.179681600000029],[121.51910230000038,14.179131600000028],[121.51800230000038,14.177481600000027],[121.51635230000036,14.174181600000024],[121.51635230000036,14.173631600000023]]]}},{"type":"Feature","properties":{"name":"San Rafael","color":"#fab1a0","lon":121.5185067,"lat":14.1616657},"geometry":{"type":"Polygon","coordinates":[[[121.51305230000034,14.162631600000013],[121.51470230000035,14.149981600000002],[121.51525230000036,14.149431600000002],[121.51745230000037,14.1477816],[121.51855230000038,14.1477816],[121.5213023000004,14.1483316],[121.5350523000005,14.157131600000008],[121.5350523000005,14.160981600000012],[121.52680230000044,14.165381600000016],[121.51690230000037,14.17033160000002],[121.51635230000036,14.16978160000002],[121.51305230000034,14.165931600000016],[121.51305230000034,14.162631600000013]]]}},{"type":"Feature","properties":{"name":"San Roque","color":"#fd79a8","lon":121.5079647,"lat":14.1603499},"geometry":{"type":"Polygon","coordinates":[[[121.48940230000017,14.164831600000015],[121.5086523000003,14.149981600000002],[121.51305230000034,14.149431600000002],[121.51470230000035,14.149431600000002],[121.51360230000034,14.15823160000001],[121.51305230000034,14.162081600000013],[121.51250230000034,14.165381600000016],[121.50590230000029,14.165381600000016],[121.48940230000017,14.164831600000015]]]}},{"type":"Feature","properties":{"name":"San Salvador","color":"#636e72","lon":121.4903596,"lat":14.2162959},"geometry":{"type":"Polygon","coordinates":[[[121.4674023,14.200031600000047],[121.46795230000001,14.198381600000046],[121.46850230000001,14.197281600000045],[121.47345230000005,14.189581600000038],[121.47400230000005,14.189581600000038],[121.49050230000017,14.197831600000045],[121.50205230000026,14.20388160000005],[121.52240230000041,14.220931600000066],[121.47290230000004,14.227531600000072],[121.47235230000004,14.226981600000071],[121.4674023,14.20388160000005],[121.4674023,14.200031600000047]]]}},{"type":"Feature","properties":{"name":"Santo Domingo","color":"#2d3436","lon":121.5461878,"lat":14.1979935},"geometry":{"type":"Polygon","coordinates":[[[121.52405230000042,14.219831600000065],[121.52845230000045,14.206631600000053],[121.52900230000046,14.205531600000052],[121.53120230000047,14.202231600000049],[121.53340230000049,14.200031600000047],[121.53670230000051,14.197281600000045],[121.54605230000058,14.189581600000038],[121.54715230000059,14.189031600000037],[121.5477023000006,14.189031600000037],[121.5488023000006,14.19178160000004],[121.55320230000063,14.204431600000051],[121.55595230000065,14.212681600000058],[121.55595230000065,14.213231600000059],[121.55430230000064,14.21488160000006],[121.55265230000063,14.215981600000061],[121.53120230000047,14.220931600000066],[121.52625230000044,14.221481600000066],[121.52460230000042,14.221481600000066],[121.52405230000042,14.220931600000066],[121.52405230000042,14.219831600000065]]]}},{"type":"Feature","properties":{"name":"Santo Tomas","color":"#b2bec3","lon":121.5167568,"lat":14.1869878},"geometry":{"type":"Polygon","coordinates":[[[121.51470230000035,14.187381600000036],[121.51690230000037,14.182981600000032],[121.51800230000038,14.18133160000003],[121.51910230000038,14.18023160000003],[121.52020230000039,14.18023160000003],[121.5213023000004,14.18078160000003],[121.52295230000041,14.18188160000003],[121.52295230000041,14.182981600000032],[121.51635230000036,14.189581600000038],[121.51580230000036,14.189581600000038],[121.51470230000035,14.188481600000037],[121.51470230000035,14.187381600000036]]]}}]}